#dP2026  6  6  0  0  0.00000000     289 d+D   IGc20 FIT AIUB
## 2421 518400.00000000   300.00000000 61197 0.0000000000000
+  116   G01G02G03G04G05G06G07G08G09G10G11G12G13G14G15G16G17
+        G18G19G20G21G22G23G24G25G26G27G28G29G30G31G32R02R03
+        R04R05R06R07R08R09R11R12R14R15R16R17R18R19R20R21R22
+        R24R26E02E03E04E05E06E07E08E09E10E11E12E13E14E15E16
+        E18E19E21E23E25E26E27E28E29E30E31E32E33E34E36C06C07
+        C08C11C12C13C14C19C20C21C22C23C24C25C26C27C28C29C30
+        C31C32C33C34C35C36C37C38C39C41C42J02J03J04  0  0  0
++         5  5  5  5  5  5  5  5  5  5  5  5  5  5  5  5  5
++         5  5  5  5  5  5  5  5  5  5  5  5  5  5  5  5  5
++         5  5  5  5  5  5  5  5  5  5  5  5  5  5  5  5  5
++         5  5  5  5  5  5  5  5  5  5  5  5  5  5  5  5  5
++         5  5  5  5  5  5  5  5  5  5  5  5  5  5  5  5  5
++         5  5  5  5  5  5  5  5  5  5  5  5  5  5  5  5  5
++         5  5  5  5  5  5  5  5  5  5  5  5  5  5  0  0  0
%c M  cc GPS ccc cccc cccc cccc cccc ccccc ccccc ccccc ccccc
%c cc cc ccc ccc cccc cccc cccc cccc ccccc ccccc ccccc ccccc
%f  1.2500000  1.025000000  0.00000000000  0.000000000000000
%f  0.0000000  0.000000000  0.00000000000  0.000000000000000
%i    0    0    0    0      0      0      0      0         0
%i    0    0    0    0      0      0      0      0         0
/* Center for Orbit Determination in Europe (CODE)                              
/* MGEX orbits and clocks for year-day 2026-1570                                
/* Middle day of a 3-day long-arc multi-GNSS solution                           
/* Systems considered: GPS/GLONASS/Galileo/BeiDou/QZSS                          
/* Product reference - DOI 10.48620/97775                                       
/* PCV:IGS20_2417 OL/AL:FES2014b NONE     YN ORB:CoN CLK:CoN                    
*  2026  6  6  9 40  0.00000000
PG01  15488.636346 -19964.512181   8031.123152    255.262373
PG02  16005.994940 -12114.693119  17459.753510    113.394479
PG03  19759.559564 -11725.167376 -13431.791549    432.745174
PG04   8081.042536 -13472.556295 -21358.122955     59.287994
PG05 -26045.631693   5299.893278   -242.754553   -233.816345
PG06  -7928.871908 -15516.531074 -19937.587548   -594.768870
PG07   5221.906357 -25337.090876   5641.618017   -192.775855
PG08  17095.677645  -2831.372653  20051.715972    427.653831
PG09  -2266.992563 -20438.588063 -16868.944739    740.766481
PG10  12521.781138  11711.906508  20650.225016   -579.712701
PG11 -15331.586630  -2219.184341 -21512.370173   -315.917453
PG12 -21342.448189  10510.561848 -12100.767847   -607.145247
PG13 -21184.783528  11995.344020 -10726.338293    347.189318
PG14  -9360.214740 -13878.481006  20781.186704    747.996971
PG15 -15830.178767   5522.013654  20060.247586    417.849668
PG16  26283.919362   1730.191832  -5279.458287    276.404221
PG17 -11667.437725 -23036.179639   5926.953417   -150.112038
PG18  -4435.953853  24940.868418   7532.821737   -334.567116
PG19 -17498.895904 -19719.055939  -5181.658741    701.434242
PG20 -19383.788952  -3468.335911  17874.930639    185.075909
PG21 -24865.639882  -2730.415451  -8978.177305    410.942949
PG22 -14987.449693 -12002.775905  18540.942856     11.210591
PG23  -1182.519270  14921.360016  21990.116885    655.648250
PG24 -14677.627809  16732.929724  13673.384658     47.758897
PG25  -9382.892662  15950.110612 -19350.138229    416.892534
PG26  21522.981123   5809.306134 -14973.957447   -372.420371
PG27  20654.219233   8641.118597  14245.217721      0.417445
PG28   8234.055831  16633.382222 -18983.685264   -508.193327
PG29   -954.232001  19899.360076 -17521.474898   -306.733237
PG30  -4608.542728 -21001.573304  15636.577262    249.381855
PG31  13995.278510   6670.970181 -21844.892303   -144.248714
PG32  16509.149288  20918.149024   1068.994895     94.328814
PR02 -12666.598774 -16641.682721 -14511.407277     12.181032
PR03 -21919.642544 -12463.265305   3703.858358     14.504265
PR04 -17503.882717  -1793.778703  18491.744270    359.571342
PR05  -4127.188414   9912.273601  23148.803195    169.214216
PR06  11758.700526  16432.717273  15584.922630    -19.207588
PR07  21903.853318  12661.183202  -3403.245001    122.089799
PR08  17418.989830   1332.893755 -18540.428958     -5.063938
PR09   1768.268471  11805.068517 -22524.532612    330.504830
PR11  23267.155566  -9166.489185  -4954.580896      6.874350
PR12  15928.812496 -15063.694442  13074.207955     70.007254
PR14 -17053.577026  -1510.988375  18938.281685     32.801422
PR15 -23315.833175   9401.438651   4386.517538     55.502728
PR16 -15897.241115  14965.277435 -13208.879124     50.303478
PR17  -9427.777608  -9905.834841 -21542.136685    302.263881
PR18 -10690.088189   7710.902584 -21837.934035    264.944533
PR19  -6740.863761  22585.550125  -9688.689222     50.544963
PR20   1610.267722  24076.991956   8341.311493    233.409651
PR21   8240.830165  13488.743915  20002.132668   -314.315075
PR22  11013.368670  -9274.735935  21075.976393    129.421497
PR24  -2894.959781 -23828.408624  -8656.895955   -169.818428
PR26  19292.211854   3726.532823 -16231.771967    -27.135560
PE02   6338.071809 -16381.644570  23824.094411     45.419121
PE03   -466.343141 -24630.517249 -16433.595662    -21.361104
PE04  14826.651036  25574.814194  -1304.202876   -165.574745
PE05  14038.057568  -9242.175970 -24363.281997     39.787641
PE06  19127.014058  19999.670160 -10507.875166   -280.982607
PE07 -20384.417376 -11686.469621  18020.569730    -68.656033
PE08 -14702.491272 -25677.571430   1214.582519   -159.361368
PE09  20242.893309  11747.482679 -18106.636881   -312.808233
PE10  12537.698343  10152.385560  24807.663540   -797.092956
PE11  18351.603041   -821.046197  23190.872182   5207.758638
PE12   5716.782577  18338.006602  22515.891806    -49.787712
PE13 -18122.806713    383.665592 -23405.167648    -56.439622
PE14 -10757.409594 -28613.596271   9777.264886   3440.564141
PE15  -5180.978375 -18747.162158 -22309.936938   -264.000428
PE16  29041.867787   3838.445594  -4150.772011    -36.808747
PE18   4623.621810  21228.250746  -9969.999324   2861.643109
PE19   -339.523361  24163.418622  17091.701990   3009.909611
PE21 -25009.849070   8449.566174 -13389.064984   -747.691643
PE23  -6297.257253  16377.761629 -23840.961676    -37.539807
PE25  25357.820460  -8122.453308  12939.009886     21.899895
PE26 -20126.170103  18912.813336 -10654.007140    325.436296
PE27 -28766.227490  -4657.382452   5180.136596  -1008.986678
PE28   8249.861804  27462.896876   7347.556466    -49.048299
PE29 -14126.514626   9410.155914  24248.457147   -213.189711
PE30 -16227.106067 -14626.849013  19961.792882  -1122.507764
PE31  15501.661460  14810.754446 -20400.016189   -146.712347
PE32  -8216.419915 -27464.448855  -7391.210765     13.355454
PE33 -10686.953277  26442.277614   7917.067202    -18.032872
PE34  10518.752862 -26470.035325  -8073.894735   -258.666798
PE36  20157.618315 -18756.599889  10847.030255   -576.029478
PC06 -19793.679042  19854.770869  31519.022858    292.623582
PC07 -20989.398218  36721.873731    582.705727    -25.510072
PC08  -6642.599472  29938.579368 -28730.568017   -238.305446
PC11  11568.834304  22277.102563  12203.039726   -705.382069
PC12  19145.633504  16659.741931  11590.803975    635.043039
PC13 -16462.273216  -4024.966073 -22181.688497   -924.555362
PC14  -1035.372692 -16859.127501 -22220.551012   -336.438108
PC19  24776.434056  12572.147353   2359.093013   -938.280333
PC20  12916.676279  17906.813580  17035.966414   -903.167342
PC21   8535.830798 -12923.760727 -23207.803056   -850.851965
PC22  23526.287898   -412.889226 -14989.192404    455.179036
PC23 -24354.929798  10318.392361   8893.241093   -457.183145
PC24    391.064520 -18925.350646  20501.953653   -393.691463
PC25 -18274.794173  -4502.384619  20586.538484    849.054230
PC26  15946.010955 -21017.051387   9129.979843   -650.763042
PC27  -7797.928141  22457.859481 -14638.919841    642.156336
PC28 -14952.538917   8203.697902 -22086.621766    525.273092
PC29  15328.723953  15443.076911  17461.985213    613.695229
PC30   6346.593158  27062.823210   2547.588841    463.290257
PC31   6846.848016 -22824.636474  14481.940300    790.875665
PC32  -8620.915208  12917.862332  23192.832509   -912.280942
PC33 -24877.771275 -12447.231016  -2434.090830   -913.982043
PC34  -5937.893257 -27191.045352  -1959.534457    961.572941
PC35  15320.076148  -6545.165023  22360.898729   -416.358368
PC36  17837.922699   5333.604226 -20768.118798    274.968086
PC37 -17089.323770  20422.395162  -8284.392738   -936.113699
PC38 -15837.202622 -13998.158042 -18232.159242    139.788793
PC39  24407.099010  -9904.377728  -9258.612696   -895.134999
PC41 -24217.724852   -456.561765  13942.489117   -942.436858
PC42 -10609.009302 -17946.113918 -18544.801644   -892.447541
PJ02 -29509.473829  15238.254832 -21224.703075     -0.384558
PJ03 -25680.845755  32779.492755  -2572.494332     -4.885032
PJ04 -25627.610741  25333.021943  27495.176543      0.827547
EOF
